{"type": "FeatureCollection", "features": [ {"type": "Feature", "properties": {"norad_id": 66868, "name": "STARLINK-36108", "group": "last-30-days", "lat": 17.896666681583106, "lon": 92.87651500015343, "alt_km": 347.7226359758124, "timestamp": "2025-12-20T20:38:43.173752+00:00", "meta": {"OBJECT_NAME": "STARLINK-36108", "OBJECT_ID": "2025-281W", "EPOCH": "2025-12-20T14:00:03.000384", "MEAN_MOTION": 15.74140988, "ECCENTRICITY": 0.00010949, "INCLINATION": 43.0005, "RA_OF_ASC_NODE": 74.2768, "ARG_OF_PERICENTER": 274.0217, "MEAN_ANOMALY": 342.5896, "EPHEMERIS_TYPE": 0, "CLASSIFICATION_TYPE": "U", "NORAD_CAT_ID": 66868, "ELEMENT_SET_NO": 999, "REV_AT_EPOCH": 249, "BSTAR": -0.014567219, "MEAN_MOTION_DOT": -0.01874183, "MEAN_MOTION_DDOT": 0}, "tle": {"line1": "1 66868U 25281W   25354.58336806 -.01874183  00000+0 -14567-1 0  9997", "line2": "2 66868  43.0005  74.2768 0001094 274.0217 342.5896 15.74140988  2498"}}, "geometry": {"type": "Point", "coordinates": [92.87651500015343, 17.896666681583106]}}, {"type": "Feature", "properties": {"norad_id": 66869, "name": "STARLINK-36092", "group": "last-30-days", "lat": 19.116717897759166, "lon": 94.43102211860312, "alt_km": 347.5056845451627, "timestamp": "2025-12-20T20:38:43.173764+00:00", "meta": {"OBJECT_NAME": "STARLINK-36092", "OBJECT_ID": "2025-281X", "EPOCH": "2025-12-20T14:00:03.000384", "MEAN_MOTION": 15.74144622, "ECCENTRICITY": 0.00010639, "INCLINATION": 43.0007, "RA_OF_ASC_NODE": 74.2712, "ARG_OF_PERICENTER": 276.2122, "MEAN_ANOMALY": 342.313, "EPHEMERIS_TYPE": 0, "CLASSIFICATION_TYPE": "U", "NORAD_CAT_ID": 66869, "ELEMENT_SET_NO": 999, "REV_AT_EPOCH": 268, "BSTAR": -0.014593241, "MEAN_MOTION_DOT": -0.01877318, "MEAN_MOTION_DDOT": 0}, "tle": {"line1": "1 66869U 25281X   25354.58336806 -.01877318  00000+0 -14593-1 0  9990", "line2": "2 66869  43.0007  74.2712 0001063 276.2122 342.3130 15.74144622  2684"}}, "geometry": {"type": "Point", "coordinates": [94.43102211860312, 19.116717897759166]}}, {"type": "Feature", "properties": {"norad_id": 66870, "name": "STARLINK-36114", "group": "last-30-days", "lat": 20.324538618097513, "lon": 96.01074819053754, "alt_km": 347.34838900626255, "timestamp": "2025-12-20T20:38:43.173774+00:00", "meta": {"OBJECT_NAME": "STARLINK-36114", "OBJECT_ID": "2025-281Y", "EPOCH": "2025-12-20T14:00:03.000384", "MEAN_MOTION": 15.74144624, "ECCENTRICITY": 0.0001048, "INCLINATION": 43.0008, "RA_OF_ASC_NODE": 74.2662, "ARG_OF_PERICENTER": 275.6239, "MEAN_ANOMALY": 344.8201, "EPHEMERIS_TYPE": 0, "CLASSIFICATION_TYPE": "U", "NORAD_CAT_ID": 66870, "ELEMENT_SET_NO": 999, "REV_AT_EPOCH": 255, "BSTAR": -0.014607732, "MEAN_MOTION_DOT": -0.0187892, "MEAN_MOTION_DDOT": 0}, "tle": {"line1": "1 66870U 25281Y   25354.58336806 -.01878920  00000+0 -14608-1 0  9999", "line2": "2 66870  43.0008  74.2662 0001048 275.6239 344.8201 15.74144624  2550"}}, "geometry": {"type": "Point", "coordinates": [96.01074819053754, 20.324538618097513]}}, {"type": "Feature", "properties": {"norad_id": 66871, "name": "STARLINK-36095", "group": "last-30-days", "lat": 21.517199064670603, "lon": 97.61453390674973, "alt_km": 347.2248814290597, "timestamp": "2025-12-20T20:38:43.173784+00:00", "meta": {"OBJECT_NAME": "STARLINK-36095", "OBJECT_ID": "2025-281Z", "EPOCH": "2025-12-20T14:00:03.000384", "MEAN_MOTION": 15.74143049, "ECCENTRICITY": 0.00010547, "INCLINATION": 43.0007, "RA_OF_ASC_NODE": 74.2612, "ARG_OF_PERICENTER": 273.3034, "MEAN_ANOMALY": 349.0586, "EPHEMERIS_TYPE": 0, "CLASSIFICATION_TYPE": "U", "NORAD_CAT_ID": 66871, "ELEMENT_SET_NO": 999, "REV_AT_EPOCH": 268, "BSTAR": -0.014590109, "MEAN_MOTION_DOT": -0.01876849, "MEAN_MOTION_DDOT": 0}, "tle": {"line1": "1 66871U 25281Z   25354.58336806 -.01876849  00000+0 -14590-1 0  9998", "line2": "2 66871  43.0007  74.2612 0001054 273.3034 349.0586 15.74143049  2687"}}, "geometry": {"type": "Point", "coordinates": [97.61453390674973, 21.517199064670603]}}, {"type": "Feature", "properties": {"norad_id": 66872, "name": "STARLINK-36082", "group": "last-30-days", "lat": 22.69424603742271, "lon": 99.24475126112084, "alt_km": 347.03783181377094, "timestamp": "2025-12-20T20:38:43.173794+00:00", "meta": {"OBJECT_NAME": "STARLINK-36082", "OBJECT_ID": "2025-281AA", "EPOCH": "2025-12-20T14:00:03.000384", "MEAN_MOTION": 15.7414381, "ECCENTRICITY": 0.0001111, "INCLINATION": 43.0007, "RA_OF_ASC_NODE": 74.2562, "ARG_OF_PERICENTER": 275.8947, "MEAN_ANOMALY": 348.3825, "EPHEMERIS_TYPE": 0, "CLASSIFICATION_TYPE": "U", "NORAD_CAT_ID": 66872, "ELEMENT_SET_NO": 999, "REV_AT_EPOCH": 255, "BSTAR": -0.014585951, "MEAN_MOTION_DOT": -0.01876487, "MEAN_MOTION_DDOT": 0}, "tle": {"line1": "1 66872U 25281AA  25354.58336806 -.01876487  00000+0 -14586-1 0  9992", "line2": "2 66872  43.0007  74.2562 0001111 275.8947 348.3825 15.74143810  2556"}}, "geometry": {"type": "Point", "coordinates": [99.24475126112084, 22.69424603742271]}}, {"type": "Feature", "properties": {"norad_id": 66873, "name": "STARLINK-36128", "group": "last-30-days", "lat": 26.119787933702483, "lon": 104.31236110300894, "alt_km": 346.60486982515613, "timestamp": "2025-12-20T20:38:43.173804+00:00", "meta": {"OBJECT_NAME": "STARLINK-36128", "OBJECT_ID": "2025-281AB", "EPOCH": "2025-12-20T14:00:03.000384", "MEAN_MOTION": 15.74143127, "ECCENTRICITY": 0.00011942, "INCLINATION": 43.0007, "RA_OF_ASC_NODE": 74.2411, "ARG_OF_PERICENTER": 275.6919, "MEAN_ANOMALY": 354.3373, "EPHEMERIS_TYPE": 0, "CLASSIFICATION_TYPE": "U", "NORAD_CAT_ID": 66873, "ELEMENT_SET_NO": 999, "REV_AT_EPOCH": 268, "BSTAR": -0.014580514, "MEAN_MOTION_DOT": -0.01875903, "MEAN_MOTION_DDOT": 0}, "tle": {"line1": "1 66873U 25281AB  25354.58336806 -.01875903  00000+0 -14581-1 0  9990", "line2": "2 66873  43.0007  74.2411 0001194 275.6919 354.3373 15.74143127  2688"}}, "geometry": {"type": "Point", "coordinates": [104.31236110300894, 26.119787933702483]}}, {"type": "Feature", "properties": {"norad_id": 66874, "name": "STARLINK-36129", "group": "last-30-days", "lat": 23.853986797561127, "lon": 100.90290569584585, "alt_km": 346.8704895869241, "timestamp": "2025-12-20T20:38:43.173816+00:00", "meta": {"OBJECT_NAME": "STARLINK-36129", "OBJECT_ID": "2025-281AC", "EPOCH": "2025-12-20T14:00:03.000384", "MEAN_MOTION": 15.74146389, "ECCENTRICITY": 0.00010905, "INCLINATION": 43.0007, "RA_OF_ASC_NODE": 74.2516, "ARG_OF_PERICENTER": 275.7385, "MEAN_ANOMALY": 350.4536, "EPHEMERIS_TYPE": 0, "CLASSIFICATION_TYPE": "U", "NORAD_CAT_ID": 66874, "ELEMENT_SET_NO": 999, "REV_AT_EPOCH": 268, "BSTAR": -0.014610158, "MEAN_MOTION_DOT": -0.01879352, "MEAN_MOTION_DDOT": 0}, "tle": {"line1": "1 66874U 25281AC  25354.58336806 -.01879352  00000+0 -14610-1 0  9996", "line2": "2 66874  43.0007  74.2516 0001090 275.7385 350.4536 15.74146389  2689"}}, "geometry": {"type": "Point", "coordinates": [100.90290569584585, 23.853986797561127]}}, {"type": "Feature", "properties": {"norad_id": 66875, "name": "STARLINK-36053", "group": "last-30-days", "lat": 27.222067613478398, "lon": 106.0667368751924, "alt_km": 346.49684209859424, "timestamp": "2025-12-20T20:38:43.173826+00:00", "meta": {"OBJECT_NAME": "STARLINK-36053", "OBJECT_ID": "2025-281AD", "EPOCH": "2025-12-20T14:00:03.000384", "MEAN_MOTION": 15.74141954, "ECCENTRICITY": 0.00011136, "INCLINATION": 43.0007, "RA_OF_ASC_NODE": 74.2364, "ARG_OF_PERICENTER": 271.3726, "MEAN_ANOMALY": 0.5787, "EPHEMERIS_TYPE": 0, "CLASSIFICATION_TYPE": "U", "NORAD_CAT_ID": 66875, "ELEMENT_SET_NO": 999, "REV_AT_EPOCH": 268, "BSTAR": -0.014614934, "MEAN_MOTION_DOT": -0.01879587, "MEAN_MOTION_DDOT": 0}, "tle": {"line1": "1 66875U 25281AD  25354.58336806 -.01879587  00000+0 -14615-1 0  9992", "line2": "2 66875  43.0007  74.2364 0001113 271.3726   0.5787 15.74141954  2682"}}, "geometry": {"type": "Point", "coordinates": [106.0667368751924, 27.222067613478398]}}, {"type": "Feature", "properties": {"norad_id": 66876, "name": "STARLINK-35702", "group": "last-30-days", "lat": 24.996586005090816, "lon": 102.59168045889086, "alt_km": 346.71728032123156, "timestamp": "2025-12-20T20:38:43.173836+00:00", "meta": {"OBJECT_NAME": "STARLINK-35702", "OBJECT_ID": "2025-281AE", "EPOCH": "2025-12-20T14:00:03.000384", "MEAN_MOTION": 15.74146357, "ECCENTRICITY": 0.00011382, "INCLINATION": 43.0009, "RA_OF_ASC_NODE": 74.2465, "ARG_OF_PERICENTER": 276.5837, "MEAN_ANOMALY": 351.5255, "EPHEMERIS_TYPE": 0, "CLASSIFICATION_TYPE": "U", "NORAD_CAT_ID": 66876, "ELEMENT_SET_NO": 999, "REV_AT_EPOCH": 268, "BSTAR": -0.014607013, "MEAN_MOTION_DOT": -0.0187904, "MEAN_MOTION_DDOT": 0}, "tle": {"line1": "1 66876U 25281AE  25354.58336806 -.01879040  00000+0 -14607-1 0  9998", "line2": "2 66876  43.0009  74.2465 0001138 276.5837 351.5255 15.74146357  2685"}}, "geometry": {"type": "Point", "coordinates": [102.59168045889086, 24.996586005090816]}}, {"type": "Feature", "properties": {"norad_id": 66877, "name": "ZQ-3 R/B", "group": "last-30-days", "lat": 34.68738947484566, "lon": 52.979672538225614, "alt_km": 1126.3069727111824, "timestamp": "2025-12-20T20:38:43.173849+00:00", "meta": {"OBJECT_NAME": "ZQ-3 R/B", "OBJECT_ID": "2025-282A", "EPOCH": "2025-12-20T07:25:11.913024", "MEAN_MOTION": 14.74860688, "ECCENTRICITY": 0.07154631, "INCLINATION": 56.9493, "RA_OF_ASC_NODE": 28.3554, "ARG_OF_PERICENTER": 233.2383, "MEAN_ANOMALY": 120.0902, "EPHEMERIS_TYPE": 0, "CLASSIFICATION_TYPE": "U", "NORAD_CAT_ID": 66877, "ELEMENT_SET_NO": 999, "REV_AT_EPOCH": 250, "BSTAR": 0.00016912558, "MEAN_MOTION_DOT": 0.0093684, "MEAN_MOTION_DDOT": 7.752874e-06}, "tle": {"line1": "1 66877U 25282A   25354.30916566  .00936840  77529-5  16913-3 0  9996", "line2": "2 66877  56.9493  28.3554 0715463 233.2383 120.0902 14.74860688  2502"}}, "geometry": {"type": "Point", "coordinates": [52.979672538225614, 34.68738947484566]}}]}